STARLINK-32433          
1 61852U 24202H   26068.50936657  .00000042  00000+0  11060-4 0  9992
2 61852  43.0024 238.6988 0001786 285.7681  74.2974 15.27567455 75316
LIZZIESAT-2 (LS-2)      
1 62383U 24247G   26068.49140277  .00009388  00000+0  34517-3 0  9997
2 62383  44.9909 117.0823 0004092 327.5136  32.5495 15.28222796 67716
